STARLINK-37799          
1 69317U 26119X   26166.86395528  .00102317  00000+0  52749-3 0  9995
2 69317  97.2831 192.6671 0001172  81.8058 278.3344 15.80864753  2584
STARLINK-37802          
1 69318U 26119Y   26166.98881530 -.00749726  00000+0 -45585-2 0  9994
2 69318  97.2827 192.8037 0001664 166.4926 193.6386 15.79335138  3852
STARLINK-37803          
1 69319U 26119Z   26166.91668981 -.02295161  00000+0 -27542-1 0  9994
2 69319  97.2842 192.6864 0002402 101.0740 112.0056 15.64054938  3798
GUOWANG TEST OBJECT A   
1 69320U 26120A   26158.46264223  .00009002  00000+0  24096-3 0  9996
2 69320  54.9967  71.5399 0009599 294.3963  65.6063 15.38803685  1198
GUOWANG TEST OBJECT B   
1 69321U 26120B   26166.90442645  .00009403  00000+0  25218-3 0  9993
2 69321  54.9982  33.5103 0009971 326.8872  33.1531 15.38683890  2499
GUOWANG TEST OBJECT C   
1 69322U 26120C   26158.91389784  .00016153  00000+0  41736-3 0  9993
2 69322  54.9968  69.4792 0009850 309.3319  50.6835 15.39284097  1266
GUOWANG TEST OBJECT D   
1 69323U 26120D   26166.90053670  .00004415  00000+0  12254-3 0  9995
2 69323  54.9971  33.4858 0011237 340.1990  19.8600 15.39011161  2498
QIANFAN-163             
1 69325U 26121A   26166.90120987  .00000005  00000+0 -96547-5 0  9995
2 69325  89.0157 300.6446 0019842 192.3790 167.6882 13.59757878  1981
QIANFAN-164             
1 69326U 26121B   26162.41240743  .00000112  00000+0  13228-3 0  9992
2 69326  89.0157 301.0998 0019383 205.3125 154.7084 13.60355109  1373
SZ-22 MODULE            
1 69328U 25272C   26166.89558009  .00018201  00000+0  22078-3 0  9994
2 69328  41.4805 329.9609 0006362  75.6336 284.5209 15.60170847  3122
STARLINK-37733          
1 69329U 26122A   26166.91668981 -.00024020  00000+0 -12513-3 0  9995
2 69329  97.2833 196.2858 0000459  43.4700  66.0888 15.80795789  3141
STARLINK-37772          
1 69330U 26122B   26166.91668981  .00079143  00000+0  41128-3 0  9995
2 69330  97.2835 196.2989 0001164  68.3847  71.0069 15.80757844  3093
STARLINK-37768          
1 69331U 26122C   26166.91668981 -.01693992  00000+0 -99570-2 0  9996
2 69331  97.2837 196.3018 0001828  87.9969  60.7074 15.81312955  3091
STARLINK-37833          
1 69332U 26122D   26166.91668981  .00039154  00000+0  20466-3 0  9997
2 69332  97.2836 196.3043 0000969  65.2074  86.4120 15.80770819  3093
STARLINK-37818          
1 69333U 26122E   26166.91668981  .00060405  00000+0  31428-3 0  9991
2 69333  97.2834 196.2999 0001291  84.6758  55.8750 15.80790682  3149
STARLINK-37868          
1 69334U 26122F   26166.91668981  .00079236  00000+0  41137-3 0  9992
2 69334  97.2847 196.3176 0001039  78.5987 104.1603 15.80778198  3141
STARLINK-37877          
1 69335U 26122G   26166.91668981 -.02457354  00000+0 -16212-1 0  9992
2 69335  97.2843 196.3164 0001841  87.0022  95.3445 15.78973364  3145
STARLINK-37791          
1 69336U 26122H   26166.91668981  .00057707  00000+0  30039-3 0  9992
2 69336  97.2834 196.3212 0000524  83.1693 109.1441 15.80789737  3140
STARLINK-37765          
1 69337U 26122J   26166.91668981  .00051623  00000+0  26944-3 0  9994
2 69337  97.2841 196.3227 0000824  52.4165 142.0911 15.80752569  3197
STARLINK-37788          
1 69338U 26122K   26166.91668981 -.02457994  00000+0 -16537-1 0  9995
2 69338  97.2841 196.3228 0001864  81.4921 115.2122 15.78543496  3141
STARLINK-37743          
1 69339U 26122L   26166.91668981  .00049984  00000+0  26094-3 0  9999
2 69339  97.2837 196.3180 0000959  61.7541 123.4042 15.80753710  3155
STARLINK-37780          
1 69340U 26122M   26166.91668981  .00096217  00000+0  49852-3 0  9999
2 69340  97.2840 196.3207 0001390  82.7736 107.8675 15.80772780  3190
STARLINK-37781          
1 69341U 26122N   26166.91668981 -.02432244  00000+0 -16237-1 0  9997
2 69341  97.2838 196.3144 0001936  93.7015  84.2918 15.78674007  3150
STARLINK-37782          
1 69342U 26122P   26166.91668981  .00033866  00000+0  17702-3 0  9991
2 69342  97.2847 196.3395 0000866  90.5144 146.3166 15.80796542  3155
STARLINK-37776          
1 69343U 26122Q   26166.91668981  .00075083  00000+0  38854-3 0  9990
2 69343  97.2845 196.3420 0001337  91.7713 150.5183 15.80861991  3159
STARLINK-37786          
1 69344U 26122R   26166.91668981  .00088835  00000+0  46093-3 0  9994
2 69344  97.2847 196.3478 0000944  83.7298 171.8184 15.80762965  3155
STARLINK-37785          
1 69345U 26122S   26166.91668981  .00027474  00000+0  14381-3 0  9992
2 69345  97.2842 196.3487 0001226  86.0876 172.3475 15.80802872  3154
STARLINK-37773          
1 69346U 26122T   26166.91668981  .00164535  00000+0  84803-3 0  9999
2 69346  97.2842 196.3470 0001534  87.7878 163.8947 15.80701623  3194
STARLINK-37744          
1 69347U 26122U   26166.91668981 -.02427684  00000+0 -17891-1 0  9992
2 69347  97.2845 196.3468 0001646  87.6297 166.4183 15.76470454  3150
