OBJECT_NAME,OBJECT_ID,EPOCH,MEAN_MOTION,ECCENTRICITY,INCLINATION,RA_OF_ASC_NODE,ARG_OF_PERICENTER,MEAN_ANOMALY,EPHEMERIS_TYPE,CLASSIFICATION_TYPE,NORAD_CAT_ID,ELEMENT_SET_NO,REV_AT_EPOCH,BSTAR,MEAN_MOTION_DOT,MEAN_MOTION_DDOT
STARLINK-37799,2026-119X,2026-06-15T20:44:05.736192,15.80864753,.00011726,97.2831,192.6671,81.8058,278.3344,0,U,69317,999,258,.5274932E-3,.102317E-2,0
STARLINK-37802,2026-119Y,2026-06-15T23:43:53.641920,15.79335138,.00016641,97.2827,192.8037,166.4926,193.6386,0,U,69318,999,385,-.45585389E-2,-.749726E-2,0
STARLINK-37803,2026-119Z,2026-06-15T22:00:01.999584,15.64054938,.00024024,97.2842,192.6864,101.0740,112.0056,0,U,69319,999,379,-.27542021E-1,-.2295161E-1,0
GUOWANG TEST OBJECT A,2026-120A,2026-06-07T11:06:12.288672,15.38803685,.00095994,54.9967,71.5399,294.3963,65.6063,0,U,69320,999,119,.24095813E-3,.9002E-4,0
GUOWANG TEST OBJECT B,2026-120B,2026-06-15T21:42:22.445280,15.38683890,.00099717,54.9982,33.5103,326.8872,33.1531,0,U,69321,999,249,.25218098E-3,.9403E-4,0
GUOWANG TEST OBJECT C,2026-120C,2026-06-07T21:56:00.773376,15.39284097,.00098504,54.9968,69.4792,309.3319,50.6835,0,U,69322,999,126,.41735581E-3,.16153E-3,0
GUOWANG TEST OBJECT D,2026-120D,2026-06-15T21:36:46.370880,15.39011161,.0011237,54.9971,33.4858,340.1990,19.8600,0,U,69323,999,249,.12254483E-3,.4415E-4,0
QIANFAN-163,2026-121A,2026-06-15T21:37:44.532768,13.59757878,.00198423,89.0157,300.6446,192.3790,167.6882,0,U,69325,999,198,-.9654705E-5,.5E-7,0
QIANFAN-164,2026-121B,2026-06-11T09:53:52.001952,13.60355109,.0019383,89.0157,301.0998,205.3125,154.7084,0,U,69326,999,137,.13228E-3,.112E-5,0
SZ-22 MODULE,2025-272C,2026-06-15T21:29:38.119776,15.60170847,.00063624,41.4805,329.9609,75.6336,284.5209,0,U,69328,999,312,.22077771E-3,.18201E-3,0
STARLINK-37733,2026-122A,2026-06-15T22:00:01.999584,15.80795789,.00004594,97.2833,196.2858,43.4700,66.0888,0,U,69329,999,314,-.12512749E-3,-.2402E-3,0
STARLINK-37772,2026-122B,2026-06-15T22:00:01.999584,15.80757844,.0001164,97.2835,196.2989,68.3847,71.0069,0,U,69330,999,309,.41127531E-3,.79143E-3,0
STARLINK-37768,2026-122C,2026-06-15T22:00:01.999584,15.81312955,.0001828,97.2837,196.3018,87.9969,60.7074,0,U,69331,999,309,-.99570417E-2,-.1693992E-1,0
STARLINK-37833,2026-122D,2026-06-15T22:00:01.999584,15.80770819,.00009696,97.2836,196.3043,65.2074,86.4120,0,U,69332,999,309,.20465611E-3,.39154E-3,0
STARLINK-37818,2026-122E,2026-06-15T22:00:01.999584,15.80790682,.00012918,97.2834,196.2999,84.6758,55.8750,0,U,69333,999,314,.31427917E-3,.60405E-3,0
STARLINK-37868,2026-122F,2026-06-15T22:00:01.999584,15.80778198,.00010394,97.2847,196.3176,78.5987,104.1603,0,U,69334,999,314,.4113739E-3,.79236E-3,0
STARLINK-37877,2026-122G,2026-06-15T22:00:01.999584,15.78973364,.00018417,97.2843,196.3164,87.0022,95.3445,0,U,69335,999,314,-.16212293E-1,-.2457354E-1,0
STARLINK-37791,2026-122H,2026-06-15T22:00:01.999584,15.80789737,.00005241,97.2834,196.3212,83.1693,109.1441,0,U,69336,999,314,.3003901E-3,.57707E-3,0
STARLINK-37765,2026-122J,2026-06-15T22:00:01.999584,15.80752569,.00008248,97.2841,196.3227,52.4165,142.0911,0,U,69337,999,319,.26944048E-3,.51623E-3,0
STARLINK-37788,2026-122K,2026-06-15T22:00:01.999584,15.78543496,.00018647,97.2841,196.3228,81.4921,115.2122,0,U,69338,999,314,-.16536996E-1,-.2457994E-1,0
STARLINK-37743,2026-122L,2026-06-15T22:00:01.999584,15.80753710,.00009597,97.2837,196.3180,61.7541,123.4042,0,U,69339,999,315,.26094106E-3,.49984E-3,0
STARLINK-37780,2026-122M,2026-06-15T22:00:01.999584,15.80772780,.00013904,97.2840,196.3207,82.7736,107.8675,0,U,69340,999,319,.49851524E-3,.96217E-3,0
STARLINK-37781,2026-122N,2026-06-15T22:00:01.999584,15.78674007,.00019365,97.2838,196.3144,93.7015,84.2918,0,U,69341,999,315,-.16236914E-1,-.2432244E-1,0
STARLINK-37782,2026-122P,2026-06-15T22:00:01.999584,15.80796542,.00008662,97.2847,196.3395,90.5144,146.3166,0,U,69342,999,315,.17701839E-3,.33866E-3,0
STARLINK-37776,2026-122Q,2026-06-15T22:00:01.999584,15.80861991,.00013377,97.2845,196.3420,91.7713,150.5183,0,U,69343,999,315,.3885397E-3,.75083E-3,0
STARLINK-37786,2026-122R,2026-06-15T22:00:01.999584,15.80762965,.0000944,97.2847,196.3478,83.7298,171.8184,0,U,69344,999,315,.46092978E-3,.88835E-3,0
STARLINK-37785,2026-122S,2026-06-15T22:00:01.999584,15.80802872,.0001226,97.2842,196.3487,86.0876,172.3475,0,U,69345,999,315,.14380799E-3,.27474E-3,0
STARLINK-37773,2026-122T,2026-06-15T22:00:01.999584,15.80701623,.00015344,97.2842,196.3470,87.7878,163.8947,0,U,69346,999,319,.84802689E-3,.164535E-2,0
STARLINK-37744,2026-122U,2026-06-15T22:00:01.999584,15.76470454,.00016461,97.2845,196.3468,87.6297,166.4183,0,U,69347,999,315,-.1789071E-1,-.2427684E-1,0
